[
  {
    "COMMENT": "GENERATED VIA SPACETRACK.ORG API",
    "ORIGINATOR": "18 SPCS",
    "NORAD_CAT_ID": "41335",
    "OBJECT_NAME": "SENTINEL 3A",
    "OBJECT_TYPE": "PAYLOAD",
    "CLASSIFICATION_TYPE": "U",
    "INTLDES": "16011A",
    "EPOCH": "2023-04-01 03:41:53",
    "EPOCH_MICROSECONDS": "421792",
    "MEAN_MOTION": "14.26738465",
    "ECCENTRICITY": "0.0001006",
    "INCLINATION": "98.6279",
    "RA_OF_ASC_NODE": "159.3187",
    "ARG_OF_PERICENTER": "102.3158",
    "MEAN_ANOMALY": "257.8135",
    "EPHEMERIS_TYPE": "0",
    "ELEMENT_SET_NO": "999",
    "REV_AT_EPOCH": "37079",
    "BSTAR": "0.00015",
    "MEAN_MOTION_DOT": "0.00000319",
    "MEAN_MOTION_DDOT": "0",
    "FILE": "3876703",
    "TLE_LINE0": "0 SENTINEL 3A",
    "TLE_LINE1": "1 41335U 16011A   23091.15409053  .00000319  00000-0  15000-3 0  9999",
    "TLE_LINE2": "2 41335  98.6279 159.3187 0001006 102.3158 257.8135 14.26738465370793",
    "OBJECT_ID": "2016-011A",
    "OBJECT_NUMBER": "41335",
    "SEMIMAJOR_AXIS": "7180.791",
    "PERIOD": "100.930",
    "APOGEE": "803.378",
    "PERIGEE": "801.933",
    "DECAYED": "0"
  },
  {
    "COMMENT": "GENERATED VIA SPACETRACK.ORG API",
    "ORIGINATOR": "18 SPCS",
    "NORAD_CAT_ID": "41335",
    "OBJECT_NAME": "SENTINEL 3A",
    "OBJECT_TYPE": "PAYLOAD",
    "CLASSIFICATION_TYPE": "U",
    "INTLDES": "16011A",
    "EPOCH": "2023-04-01 12:06:49",
    "EPOCH_MICROSECONDS": "495392",
    "MEAN_MOTION": "14.26738567",
    "ECCENTRICITY": "0.0001009",
    "INCLINATION": "98.6279",
    "RA_OF_ASC_NODE": "159.6644",
    "ARG_OF_PERICENTER": "102.4001",
    "MEAN_ANOMALY": "257.7293",
    "EPHEMERIS_TYPE": "0",
    "ELEMENT_SET_NO": "999",
    "REV_AT_EPOCH": "37084",
    "BSTAR": "0.00014219",
    "MEAN_MOTION_DOT": "0.000003",
    "MEAN_MOTION_DDOT": "0",
    "FILE": "3876991",
    "TLE_LINE0": "0 SENTINEL 3A",
    "TLE_LINE1": "1 41335U 16011A   23091.50473953  .00000300  00000-0  14219-3 0  9999",
    "TLE_LINE2": "2 41335  98.6279 159.6644 0001009 102.4001 257.7293 14.26738567370848",
    "OBJECT_ID": "2016-011A",
    "OBJECT_NUMBER": "41335",
    "SEMIMAJOR_AXIS": "7180.790",
    "PERIOD": "100.929",
    "APOGEE": "803.380",
    "PERIGEE": "801.931",
    "DECAYED": "0"
  },
  {
    "COMMENT": "GENERATED VIA SPACETRACK.ORG API",
    "ORIGINATOR": "18 SPCS",
    "NORAD_CAT_ID": "41335",
    "OBJECT_NAME": "SENTINEL 3A",
    "OBJECT_TYPE": "PAYLOAD",
    "CLASSIFICATION_TYPE": "U",
    "INTLDES": "16011A",
    "EPOCH": "2023-04-01 13:47:48",
    "EPOCH_MICROSECONDS": "709248",
    "MEAN_MOTION": "14.26738628",
    "ECCENTRICITY": "0.000101",
    "INCLINATION": "98.6279",
    "RA_OF_ASC_NODE": "159.7336",
    "ARG_OF_PERICENTER": "102.4579",
    "MEAN_ANOMALY": "257.6714",
    "EPHEMERIS_TYPE": "0",
    "ELEMENT_SET_NO": "999",
    "REV_AT_EPOCH": "37085",
    "BSTAR": "0.0001431",
    "MEAN_MOTION_DOT": "0.00000303",
    "MEAN_MOTION_DDOT": "0",
    "FILE": "3877270",
    "TLE_LINE0": "0 SENTINEL 3A",
    "TLE_LINE1": "1 41335U 16011A   23091.57486932  .00000303  00000-0  14310-3 0  9992",
    "TLE_LINE2": "2 41335  98.6279 159.7336 0001010 102.4579 257.6714 14.26738628370855",
    "OBJECT_ID": "2016-011A",
    "OBJECT_NUMBER": "41335",
    "SEMIMAJOR_AXIS": "7180.790",
    "PERIOD": "100.929",
    "APOGEE": "803.380",
    "PERIGEE": "801.930",
    "DECAYED": "0"
  },
  {
    "COMMENT": "GENERATED VIA SPACETRACK.ORG API",
    "ORIGINATOR": "18 SPCS",
    "NORAD_CAT_ID": "41335",
    "OBJECT_NAME": "SENTINEL 3A",
    "OBJECT_TYPE": "PAYLOAD",
    "CLASSIFICATION_TYPE": "U",
    "INTLDES": "16011A",
    "EPOCH": "2023-04-01 20:31:45",
    "EPOCH_MICROSECONDS": "558624",
    "MEAN_MOTION": "14.26738847",
    "ECCENTRICITY": "0.0001011",
    "INCLINATION": "98.6278",
    "RA_OF_ASC_NODE": "160.0101",
    "ARG_OF_PERICENTER": "102.4552",
    "MEAN_ANOMALY": "257.6742",
    "EPHEMERIS_TYPE": "0",
    "ELEMENT_SET_NO": "999",
    "REV_AT_EPOCH": "37089",
    "BSTAR": "0.00014848",
    "MEAN_MOTION_DOT": "0.00000316",
    "MEAN_MOTION_DDOT": "0",
    "FILE": "3877308",
    "TLE_LINE0": "0 SENTINEL 3A",
    "TLE_LINE1": "1 41335U 16011A   23091.85538841  .00000316  00000-0  14848-3 0  9990",
    "TLE_LINE2": "2 41335  98.6278 160.0101 0001011 102.4552 257.6742 14.26738847370899",
    "OBJECT_ID": "2016-011A",
    "OBJECT_NUMBER": "41335",
    "SEMIMAJOR_AXIS": "7180.789",
    "PERIOD": "100.929",
    "APOGEE": "803.380",
    "PERIGEE": "801.928",
    "DECAYED": "0"
  },
  {
    "COMMENT": "GENERATED VIA SPACETRACK.ORG API",
    "ORIGINATOR": "18 SPCS",
    "NORAD_CAT_ID": "41335",
    "OBJECT_NAME": "SENTINEL 3A",
    "OBJECT_TYPE": "PAYLOAD",
    "CLASSIFICATION_TYPE": "U",
    "INTLDES": "16011A",
    "EPOCH": "2023-04-01 22:12:44",
    "EPOCH_MICROSECONDS": "772480",
    "MEAN_MOTION": "14.26738863",
    "ECCENTRICITY": "0.0001011",
    "INCLINATION": "98.6278",
    "RA_OF_ASC_NODE": "160.0793",
    "ARG_OF_PERICENTER": "102.605",
    "MEAN_ANOMALY": "257.5244",
    "EPHEMERIS_TYPE": "0",
    "ELEMENT_SET_NO": "999",
    "REV_AT_EPOCH": "37090",
    "BSTAR": "0.00014408",
    "MEAN_MOTION_DOT": "0.00000305",
    "MEAN_MOTION_DDOT": "0",
    "FILE": "3877516",
    "TLE_LINE0": "0 SENTINEL 3A",
    "TLE_LINE1": "1 41335U 16011A   23091.92551820  .00000305  00000-0  14408-3 0  9990",
    "TLE_LINE2": "2 41335  98.6278 160.0793 0001011 102.6050 257.5244 14.26738863370907",
    "OBJECT_ID": "2016-011A",
    "OBJECT_NUMBER": "41335",
    "SEMIMAJOR_AXIS": "7180.789",
    "PERIOD": "100.929",
    "APOGEE": "803.380",
    "PERIGEE": "801.928",
    "DECAYED": "0"
  },
  {
    "COMMENT": "GENERATED VIA SPACETRACK.ORG API",
    "ORIGINATOR": "18 SPCS",
    "NORAD_CAT_ID": "41335",
    "OBJECT_NAME": "SENTINEL 3A",
    "OBJECT_TYPE": "PAYLOAD",
    "CLASSIFICATION_TYPE": "U",
    "INTLDES": "16011A",
    "EPOCH": "2023-04-02 04:56:41",
    "EPOCH_MICROSECONDS": "622720",
    "MEAN_MOTION": "14.26739112",
    "ECCENTRICITY": "0.0001012",
    "INCLINATION": "98.6278",
    "RA_OF_ASC_NODE": "160.3559",
    "ARG_OF_PERICENTER": "102.6092",
    "MEAN_ANOMALY": "257.5201",
    "EPHEMERIS_TYPE": "0",
    "ELEMENT_SET_NO": "999",
    "REV_AT_EPOCH": "37094",
    "BSTAR": "0.00014858",
    "MEAN_MOTION_DOT": "0.00000316",
    "MEAN_MOTION_DDOT": "0",
    "FILE": "3877574",
    "TLE_LINE0": "0 SENTINEL 3A",
    "TLE_LINE1": "1 41335U 16011A   23092.20603730  .00000316  00000-0  14858-3 0  9991",
    "TLE_LINE2": "2 41335  98.6278 160.3559 0001012 102.6092 257.5201 14.26739112370942",
    "OBJECT_ID": "2016-011A",
    "OBJECT_NUMBER": "41335",
    "SEMIMAJOR_AXIS": "7180.788",
    "PERIOD": "100.929",
    "APOGEE": "803.380",
    "PERIGEE": "801.927",
    "DECAYED": "0"
  },
  {
    "COMMENT": "GENERATED VIA SPACETRACK.ORG API",
    "ORIGINATOR": "18 SPCS",
    "NORAD_CAT_ID": "41335",
    "OBJECT_NAME": "SENTINEL 3A",
    "OBJECT_TYPE": "PAYLOAD",
    "CLASSIFICATION_TYPE": "U",
    "INTLDES": "16011A",
    "EPOCH": "2023-04-02 11:40:38",
    "EPOCH_MICROSECONDS": "470368",
    "MEAN_MOTION": "14.26739172",
    "ECCENTRICITY": "0.0001019",
    "INCLINATION": "98.6277",
    "RA_OF_ASC_NODE": "160.6325",
    "ARG_OF_PERICENTER": "102.8654",
    "MEAN_ANOMALY": "257.2641",
    "EPHEMERIS_TYPE": "0",
    "ELEMENT_SET_NO": "999",
    "REV_AT_EPOCH": "37098",
    "BSTAR": "0.00013857",
    "MEAN_MOTION_DOT": "0.00000292",
    "MEAN_MOTION_DDOT": "0",
    "FILE": "3877886",
    "TLE_LINE0": "0 SENTINEL 3A",
    "TLE_LINE1": "1 41335U 16011A   23092.48655637  .00000292  00000-0  13857-3 0  9995",
    "TLE_LINE2": "2 41335  98.6277 160.6325 0001019 102.8654 257.2641 14.26739172370983",
    "OBJECT_ID": "2016-011A",
    "OBJECT_NUMBER": "41335",
    "SEMIMAJOR_AXIS": "7180.788",
    "PERIOD": "100.929",
    "APOGEE": "803.385",
    "PERIGEE": "801.921",
    "DECAYED": "0"
  },
  {
    "COMMENT": "GENERATED VIA SPACETRACK.ORG API",
    "ORIGINATOR": "18 SPCS",
    "NORAD_CAT_ID": "41335",
    "OBJECT_NAME": "SENTINEL 3A",
    "OBJECT_TYPE": "PAYLOAD",
    "CLASSIFICATION_TYPE": "U",
    "INTLDES": "16011A",
    "EPOCH": "2023-04-02 13:21:37",
    "EPOCH_MICROSECONDS": "681632",
    "MEAN_MOTION": "14.26739223",
    "ECCENTRICITY": "0.0001019",
    "INCLINATION": "98.6277",
    "RA_OF_ASC_NODE": "160.7016",
    "ARG_OF_PERICENTER": "102.9517",
    "MEAN_ANOMALY": "257.1777",
    "EPHEMERIS_TYPE": "0",
    "ELEMENT_SET_NO": "999",
    "REV_AT_EPOCH": "37099",
    "BSTAR": "0.00013837",
    "MEAN_MOTION_DOT": "0.00000291",
    "MEAN_MOTION_DDOT": "0",
    "FILE": "3878126",
    "TLE_LINE0": "0 SENTINEL 3A",
    "TLE_LINE1": "1 41335U 16011A   23092.55668613  .00000291  00000-0  13837-3 0  9998",
    "TLE_LINE2": "2 41335  98.6277 160.7016 0001019 102.9517 257.1777 14.26739223370997",
    "OBJECT_ID": "2016-011A",
    "OBJECT_NUMBER": "41335",
    "SEMIMAJOR_AXIS": "7180.788",
    "PERIOD": "100.929",
    "APOGEE": "803.385",
    "PERIGEE": "801.921",
    "DECAYED": "0"
  }
]